              TDR Cartesian                         TDR Cartesian  
    -----------------------------------       --------------------------------
     X    =        2517665.11                 X    =          767384.33
     Y    =      -19320728.24  feet           Y    =        -5888957.97  meter
     Z    =       10714617.84                 Z    =         3265815.52
     XDOT =      17379.954274                 XDOT =        5297.410063
     YDOT =      -6408.114495  feet/sec       YDOT =       -1953.193298  meter/sec
     ZDOT =     -15555.128809                 ZDOT =       -4741.203261
  
  
    The mean element set is posted at the UTC for which position is
    just north of the next ascending node relative to the above
    vector time
 
 
    TWO LINE MEAN ELEMENT SET
  
    ISS
    1 25544U 98067A   17110.03030471  .00016717  00000-0  10270-3 0  9106
    2 25544  51.6412 328.1884 0006842  72.7920 287.3981 15.54160126 12701
  
  
    Satellite: ISS
    Catalog Number: 25544
    Epoch time:      17110.03030471   =   yrday.fracday
    Element set:     910
    Inclination:       51.6412  deg
    RA of node:       328.1884  deg
    Eccentricity:     .0006842     
    Arg of perigee:    72.7920  deg
    Mean anomaly:     287.3981  deg
    Mean motion:   15.54160126  rev/day
    Decay rate:    1.67170E-04  rev/day^2
    Epoch rev:            1270
    Checksum:              281
 
 
    Coasting Arc #12 (Orbit 1274)
    ---------------------------------------
 
    Vector Time (GMT): 2017/110/07:13:45.000
    Vector Time (MET): N/A
    Weight (LBS)     : 885943.0
 
              M50 Cartesian                         M50 Keplerian  
    -----------------------------------       --------------------------------
     X    =        3597897.41                 A    =         6777830.33  meter
     Y    =        2533407.11  meter          E    =           .0010005
     Z    =        5146608.16                 I    =           51.41901
     XDOT =      -5583.751484                 Wp   =           92.32875
     YDOT =       5077.468471  meter/sec      RA   =          326.23726  deg
     ZDOT =       1401.365940                 TA   =          344.15025
                                              MA   =          344.18154
                                              Ha   =            223.229  n.mi
                                              Hp   =            212.224
 
              M50 Cartesian                         J2K Cartesian  
    -----------------------------------       --------------------------------
     X    =       11804125.36                 X    =         3544300.92
     Y    =        8311703.11  feet           Y    =         2573341.78  meter
     Z    =       16885197.38                 Z    =         5163955.46
     XDOT =     -18319.394631                 XDOT =       -5646.921258
     YDOT =      16658.361124  feet/sec       YDOT =        5014.674041  meter/sec
     ZDOT =       4597.657283                 ZDOT =        1374.087976
 
              TDR Cartesian                         TDR Cartesian  
    -----------------------------------       --------------------------------
     X    =        2672809.65                 X    =          814672.38
     Y    =       14096445.41  feet           Y    =         4296596.56  meter
     Z    =       16961072.79                 Z    =         5169734.99
     XDOT =     -23745.219855                 XDOT =       -7237.543012
     YDOT =       -894.951276  feet/sec       YDOT =        -272.781149  meter/sec
     ZDOT =       4476.683603                 ZDOT =        1364.493162
  
  
    The mean element set is posted at the UTC for which position is
    just north of the next ascending node relative to the above
    vector time
 
 
    TWO LINE MEAN ELEMENT SET
  
    ISS
    1 25544U 98067A   17110.35181397  .00016717  00000-0  10270-3 0  9116
    2 25544  51.6411 326.5869 0006710  72.5454 287.6432 15.54172054 12751
  
  
    Satellite: ISS
    Catalog Number: 25544
    Epoch time:      17110.35181397   =   yrday.fracday
    Element set:     911
    Inclination:       51.6411  deg
    RA of node:       326.5869  deg
    Eccentricity:     .0006710     
    Arg of perigee:    72.5454  deg
    Mean anomaly:     287.6432  deg
    Mean motion:   15.54172054  rev/day
    Decay rate:    1.67170E-04  rev/day^2
    Epoch rev:            1275
    Checksum:              301
 
 
    Coasting Arc #13 (Orbit 1278)
    ---------------------------------------
 
    Vector Time (GMT): 2017/110/13:22:52.000
    Vector Time (MET): N/A
    Weight (LBS)     : 901051.3
 
              M50 Cartesian                         M50 Keplerian  
    -----------------------------------       --------------------------------
     X    =        4053398.30                 A    =         6778569.64  meter
     Y    =        2051497.64  meter          E    =           .0011119
     Z    =        5021672.43                 I    =           51.41210
     XDOT =      -5095.403260                 Wp   =           95.82947
     YDOT =       5419.547834  meter/sec      RA   =          324.95746  deg
     ZDOT =       1894.147345                 TA   =          335.74195
                                              MA   =          335.79426
                                              Ha   =            223.349  n.mi
                                              Hp   =            212.311
 
              M50 Cartesian                         J2K Cartesian  
    -----------------------------------       --------------------------------
     X    =       13298550.84                 X    =         4005763.68
     Y    =        6730635.29  feet           Y    =         2096559.37  meter
     Z    =       16475303.26                 Z    =         5041246.92
     XDOT =     -16717.202295                 XDOT =       -5164.828255
     YDOT =      17780.668746  feet/sec       YDOT =        5362.179496  meter/sec
     ZDOT =       6214.394177                 ZDOT =        1869.226420
 
              TDR Cartesian                         TDR Cartesian  
    -----------------------------------       --------------------------------
     X    =       13765713.25                 X    =         4195789.40
     Y    =       -5461198.07  feet           Y    =        -1664573.17  meter
     Z    =       16561068.14                 Z    =         5047813.57
     XDOT =       1890.635051                 XDOT =         576.265564
     YDOT =      23321.920218  feet/sec       YDOT =        7108.521282  meter/sec
     ZDOT =       6103.733497                 ZDOT =        1860.417970
  
  
    The mean element set is posted at the UTC for which position is
    just north of the next ascending node relative to the above
    vector time
 
 
    TWO LINE MEAN ELEMENT SET
  
    ISS
    1 25544U 98067A   17110.60902192  .00016717  00000-0  10270-3 0  9129
    2 25544  51.6394 325.3027 0006751  73.5398 286.6496 15.54100783 12790
  
  
    Satellite: ISS
    Catalog Number: 25544
    Epoch time:      17110.60902192   =   yrday.fracday
    Element set:     912
    Inclination:       51.6394  deg
    RA of node:       325.3027  deg
    Eccentricity:     .0006751     
    Arg of perigee:    73.5398  deg
    Mean anomaly:     286.6496  deg
    Mean motion:   15.54100783  rev/day
    Decay rate:    1.67170E-04  rev/day^2
    Epoch rev:            1279
    Checksum:              313
 
 
    Coasting Arc #14 (Orbit 1293)
    ---------------------------------------
 
    Vector Time (GMT): 2017/111/13:22:52.000
    Vector Time (MET): N/A
    Weight (LBS)     : 901051.3
 
              M50 Cartesian                         M50 Keplerian  
    -----------------------------------       --------------------------------
     X    =       -2706603.53                 A    =         6777307.86  meter
     Y    =       -3262498.64  meter          E    =           .0021529
     Z    =       -5306578.93                 I    =           51.38169
     XDOT =       5870.233840                 Wp   =           86.15258
     YDOT =      -4909.343361  meter/sec      RA   =          319.94024  deg
     ZDOT =         25.688523                 TA   =          184.08478
                                              MA   =          184.10238
                                              Ha   =            223.422  n.mi
                                              Hp   =            212.078
 
              M50 Cartesian                         J2K Cartesian  
    -----------------------------------       --------------------------------
     X    =       -8879932.86                 X    =        -2644143.33
     Y    =      -10703735.71  feet           Y    =        -3292416.80  meter
     Z    =      -17410035.87                 Z    =        -5319574.96
     XDOT =      19259.297375                 XDOT =        5924.570328
     YDOT =     -16106.769556  feet/sec       YDOT =       -4843.394617  meter/sec
     ZDOT =         84.279930                 ZDOT =          54.336756
 
              TDR Cartesian                         TDR Cartesian  
    -----------------------------------       --------------------------------
     X    =      -13834310.30                 X    =        -4216697.78
     Y    =        -247257.94  feet           Y    =          -75364.22  meter
     Z    =      -17466632.09                 Z    =        -5323829.46
     XDOT =        170.187998                 XDOT =          51.873302
     YDOT =     -24096.476781  feet/sec       YDOT =       -7344.606123  meter/sec
     ZDOT =        211.236564                 ZDOT =          64.384905
  
  
    The mean element set is posted at the UTC for which position is
    just north of the next ascending node relative to the above
    vector time
 
 
    TWO LINE MEAN ELEMENT SET
  
    ISS
    1 25544U 98067A   17111.57354425  .00016717  00000-0  10270-3 0  9137
    2 25544  51.6389 320.4934 0006773  77.8307 282.3604 15.54148005 12948
  
